[{"OBJECT_NAME":"STARLINK-5233","OBJECT_ID":"2022-141D","EPOCH":"2026-03-09T22:04:34.635648","MEAN_MOTION":15.08835916,"ECCENTRICITY":0.00013705,"INCLINATION":53.2188,"RA_OF_ASC_NODE":328.0572,"ARG_OF_PERICENTER":84.0744,"MEAN_ANOMALY":276.0404,"EPHEMERIS_TYPE":0,"CLASSIFICATION_TYPE":"U","NORAD_CAT_ID":54160,"ELEMENT_SET_NO":999,"REV_AT_EPOCH":18638,"BSTAR":2.1866643e-5,"MEAN_MOTION_DOT":6.0e-7,"MEAN_MOTION_DDOT":0},{"OBJECT_NAME":"CZ-4B DEB","OBJECT_ID":"2010-051H","EPOCH":"2026-03-08T15:03:50.230080","MEAN_MOTION":14.83710316,"ECCENTRICITY":0.01132064,"INCLINATION":97.7035,"RA_OF_ASC_NODE":129.0061,"ARG_OF_PERICENTER":211.6401,"MEAN_ANOMALY":147.7975,"EPHEMERIS_TYPE":0,"CLASSIFICATION_TYPE":"U","NORAD_CAT_ID":38326,"ELEMENT_SET_NO":999,"REV_AT_EPOCH":80705,"BSTAR":0.001509593,"MEAN_MOTION_DOT":0.00013943,"MEAN_MOTION_DDOT":0}]
